2024-173F               
1 61232U 24173F   24280.22433939  .00049693  00000+0  19688-2 0  9996
2 61232  97.4054 352.9075 0011608 233.2603 126.7569 15.25179675  1792
2024-173G               
1 61233U 24173G   24280.22269404  .00062554  00000+0  24463-2 0  9999
2 61233  97.4040 352.9075 0011763 235.8283 124.1840 15.25546198  1794
2024-173H               
1 61234U 24173H   24280.15652620  .00071470  00000+0  27785-2 0  9995
2 61234  97.4054 352.8452 0011813 236.6230 123.3878 15.25699026  1785
2024-173K               
1 61236U 24173K   24280.21099466  .00057214  00000+0  21374-2 0  9995
2 61236  97.4407 352.9920 0020473 256.2916 103.6044 15.26962391  1854
2024-173L               
1 61237U 24173L   24280.20060205  .00047306  00000+0  11733-2 0  9993
2 61237  97.6777 353.6087 0086578 271.8511  87.2818 15.36363810  1893
2024-174A               
1 61238U 24174A   24280.17651377  .00015272  00000+0  78300-3 0  9998
2 61238  97.4562 285.2770 0013660 246.7325 113.2470 15.16569904  1703
2024-174B               
1 61239U 24174B   24280.17713597  .00019215  00000+0  98485-3 0  9999
2 61239  97.4552 285.2749 0014044 243.2176 116.7621 15.16526395  1693
2024-174C               
1 61240U 24174C   24280.18013062  .00015455  00000+0  80355-3 0  9991
2 61240  97.4504 285.2647 0013558 237.3844 122.6080 15.16075408  1660
2024-174D               
1 61241U 24174D   24279.51852680  .00020835  00000+0  10736-2 0  9997
2 61241  97.4525 284.6216 0013710 242.6364 117.3474 15.16324544  1560
2024-174E               
1 61242U 24174E   24280.17802191  .00011992  00000+0  61935-3 0  9996
2 61242  97.4570 285.2762 0014739 241.0879 118.8876 15.16356163  1654
STARLINK-11300 [DTC]    
1 61243U 24175A   24279.91667824 -.00933620  00000+0 -59579-2 0  9993
2 61243  53.1657 100.4630 0000820  47.1827 343.3802 15.78179610  2750
STARLINK-11276 [DTC]    
1 61244U 24175B   24279.91667824 -.00935635  00000+0 -56176-2 0  9992
2 61244  53.1657 100.4162 0000965  52.1014   1.3063 15.79519496  2598
STARLINK-11280 [DTC]    
1 61245U 24175C   24279.91667824 -.00936309  00000+0 -49867-2 0  9991
2 61245  53.1657 100.3392 0000968  50.3233  40.5479 15.82096247  2863
STARLINK-11308 [DTC]    
1 61246U 24175D   24279.91667824 -.00935136  00000+0 -52875-2 0  9992
2 61246  53.1658 100.3747 0001026  42.9095  30.5853 15.80815677  2597
STARLINK-11305 [DTC]    
1 61247U 24175E   24279.91667824 -.00931941  00000+0 -46786-2 0  9997
2 61247  53.1656 100.3078 0001021  46.1113  59.8279 15.83330210  2915
STARLINK-11317 [DTC]    
1 61248U 24175F   24280.25001157 -.00957148  00000+0 -46973-2 0  9993
2 61248  53.1652  98.6011 0000940  84.7241 135.9039 15.83867528  2756
STARLINK-11293 [DTC]    
1 61249U 24175G   24280.25001157  .00039001  00000+0  17499-3 0  9993
2 61249  53.1652  98.5760 0000900  79.8959 153.1990 15.83772748  2964
STARLINK-11334 [DTC]    
1 61250U 24175H   24279.91667824 -.00511601  00000+0 -22797-2 0  9994
2 61250  53.1654 100.2306 0000962  46.1098  97.2406 15.84798860  2597
STARLINK-11319 [DTC]    
1 61251U 24175J   24279.91667824 -.00486993  00000+0 -21046-2 0  9996
2 61251  53.1651 100.2086 0000876  41.5340 112.5130 15.85373038  2911
STARLINK-11318 [DTC]    
1 61252U 24175K   24279.91667824 -.00467553  00000+0 -19658-2 0  9994
2 61252  53.1650 100.1873 0000926  40.1932 124.0078 15.85891157  2592
STARLINK-11311 [DTC]    
1 61253U 24175L   24279.91667824 -.00451615  00000+0 -18519-2 0  9992
2 61253  53.1649 100.1666 0000917  39.9390 134.1445 15.86364399  2869
STARLINK-11306 [DTC]    
1 61254U 24175M   24279.91667824 -.00436971  00000+0 -17506-2 0  9996
2 61254  53.1648 100.1470 0000856  40.6302 142.9529 15.86803825  2914
STARLINK-11313 [DTC]    
1 61255U 24175N   24279.91667824 -.00418130  00000+0 -16379-2 0  9991
2 61255  53.1646 100.1317 0000849  39.9610 151.0894 15.87214561  2705
STARLINK-32431          
1 61256U 24175P   24279.91667824 -.00752773  00000+0 -36015-2 0  9995
2 61256  53.1640 100.1441 0001130  50.5453 133.9046 15.83897164  2908
STARLINK-32432          
1 61257U 24175Q   24279.91667824 -.00744827  00000+0 -35639-2 0  9998
2 61257  53.1640 100.1503 0000995  45.1831 136.2916 15.83876619  2900
STARLINK-32382          
1 61258U 24175R   24279.91667824 -.00813792  00000+0 -39040-2 0  9997
2 61258  53.1636 100.1115 0000965  42.7494 157.4200 15.83989536  2656
STARLINK-32435          
1 61259U 24175S   24279.91667824 -.00771701  00000+0 -36980-2 0  9991
2 61259  53.1640 100.1358 0001062  50.7766 137.9439 15.83909876  2860
